CCSDS_OMM_VERS = 2.0
CREATION_DATE  = 
ORIGINATOR     = 

OBJECT_NAME    = SL-16 R/B
OBJECT_ID      = 1993-016B
CENTER_NAME    = EARTH
REF_FRAME      = TEME
TIME_SYSTEM    = UTC
MEAN_ELEMENT_THEORY = SGP/SGP4

EPOCH          = 2026-03-05T21:25:28.613856
MEAN_MOTION    = 14.15306792
ECCENTRICITY   = .00115243
INCLINATION    = 71.0063
RA_OF_ASC_NODE = 223.1556
ARG_OF_PERICENTER = 319.4689
MEAN_ANOMALY   = 40.5575

EPHEMERIS_TYPE = 0
CLASSIFICATION_TYPE = U
NORAD_CAT_ID   = 22566
ELEMENT_SET_NO = 999
REV_AT_EPOCH   = 70163
BSTAR          = .1609304E-3
MEAN_MOTION_DOT = .266E-5
MEAN_MOTION_DDOT = 0

CCSDS_OMM_VERS = 2.0
CREATION_DATE  = 
ORIGINATOR     = 

OBJECT_NAME    = COSMOS 2242
OBJECT_ID      = 1993-024A
CENTER_NAME    = EARTH
REF_FRAME      = TEME
TIME_SYSTEM    = UTC
MEAN_ELEMENT_THEORY = SGP/SGP4

EPOCH          = 2026-03-06T07:01:37.681536
MEAN_MOTION    = 14.96531551
ECCENTRICITY   = .00154144
INCLINATION    = 82.5152
RA_OF_ASC_NODE = 269.9664
ARG_OF_PERICENTER = 321.0593
MEAN_ANOMALY   = 38.9518

EPHEMERIS_TYPE = 0
CLASSIFICATION_TYPE = U
NORAD_CAT_ID   = 22626
ELEMENT_SET_NO = 999
REV_AT_EPOCH   = 77988
BSTAR          = .21986112E-3
MEAN_MOTION_DOT = .253E-4
MEAN_MOTION_DDOT = 0

CCSDS_OMM_VERS = 2.0
CREATION_DATE  = 
ORIGINATOR     = 

OBJECT_NAME    = SL-16 R/B
OBJECT_ID      = 1993-059B
CENTER_NAME    = EARTH
REF_FRAME      = TEME
TIME_SYSTEM    = UTC
MEAN_ELEMENT_THEORY = SGP/SGP4

EPOCH          = 2026-03-06T05:31:26.391648
MEAN_MOTION    = 14.17232164
ECCENTRICITY   = .00187095
INCLINATION    = 70.9924
RA_OF_ASC_NODE = 18.4206
ARG_OF_PERICENTER = 221.4934
MEAN_ANOMALY   = 138.4770

EPHEMERIS_TYPE = 0
CLASSIFICATION_TYPE = U
NORAD_CAT_ID   = 22803
ELEMENT_SET_NO = 999
REV_AT_EPOCH   = 67904
BSTAR          = -.30328729E-4
MEAN_MOTION_DOT = -.109E-5
MEAN_MOTION_DDOT = 0

CCSDS_OMM_VERS = 2.0
CREATION_DATE  = 
ORIGINATOR     = 

OBJECT_NAME    = ARIANE 40 R/B
OBJECT_ID      = 1993-061H
CENTER_NAME    = EARTH
REF_FRAME      = TEME
TIME_SYSTEM    = UTC
MEAN_ELEMENT_THEORY = SGP/SGP4

EPOCH          = 2026-03-06T04:58:08.893632
MEAN_MOTION    = 14.32858908
ECCENTRICITY   = .0009619
INCLINATION    = 98.4922
RA_OF_ASC_NODE = 134.1632
ARG_OF_PERICENTER = 296.5654
MEAN_ANOMALY   = 63.4544

EPHEMERIS_TYPE = 0
CLASSIFICATION_TYPE = U
NORAD_CAT_ID   = 22830
ELEMENT_SET_NO = 999
REV_AT_EPOCH   = 69360
BSTAR          = .11952846E-3
MEAN_MOTION_DOT = .283E-5
MEAN_MOTION_DDOT = 0

CCSDS_OMM_VERS = 2.0
CREATION_DATE  = 
ORIGINATOR     = 

OBJECT_NAME    = COSMOS 2278
OBJECT_ID      = 1994-023A
CENTER_NAME    = EARTH
REF_FRAME      = TEME
TIME_SYSTEM    = UTC
MEAN_ELEMENT_THEORY = SGP/SGP4

EPOCH          = 2026-03-06T06:34:07.906368
MEAN_MOTION    = 14.14377342
ECCENTRICITY   = .00077951
INCLINATION    = 71.0547
RA_OF_ASC_NODE = 182.2431
ARG_OF_PERICENTER = 20.0569
MEAN_ANOMALY   = 340.0858

EPHEMERIS_TYPE = 0
CLASSIFICATION_TYPE = U
NORAD_CAT_ID   = 23087
ELEMENT_SET_NO = 999
REV_AT_EPOCH   = 64432
BSTAR          = .15286852E-3
MEAN_MOTION_DOT = .245E-5
MEAN_MOTION_DDOT = 0

CCSDS_OMM_VERS = 2.0
CREATION_DATE  = 
ORIGINATOR     = 

OBJECT_NAME    = SL-16 R/B
OBJECT_ID      = 1994-023B
CENTER_NAME    = EARTH
REF_FRAME      = TEME
TIME_SYSTEM    = UTC
MEAN_ELEMENT_THEORY = SGP/SGP4

EPOCH          = 2026-03-06T07:43:14.751264
MEAN_MOTION    = 14.15012986
ECCENTRICITY   = .00056952
INCLINATION    = 70.9986
RA_OF_ASC_NODE = 77.9609
ARG_OF_PERICENTER = 288.8916
MEAN_ANOMALY   = 71.1589

EPHEMERIS_TYPE = 0
CLASSIFICATION_TYPE = U
NORAD_CAT_ID   = 23088
ELEMENT_SET_NO = 999
REV_AT_EPOCH   = 64561
BSTAR          = -.68676068E-4
MEAN_MOTION_DOT = -.181E-5
MEAN_MOTION_DDOT = 0

CCSDS_OMM_VERS = 2.0
CREATION_DATE  = 
ORIGINATOR     = 

OBJECT_NAME    = SL-16 R/B
OBJECT_ID      = 1994-074B
CENTER_NAME    = EARTH
REF_FRAME      = TEME
TIME_SYSTEM    = UTC
MEAN_ELEMENT_THEORY = SGP/SGP4

EPOCH          = 2026-03-06T01:43:51.289824
MEAN_MOTION    = 14.79402724
ECCENTRICITY   = .00055341
INCLINATION    = 97.7113
RA_OF_ASC_NODE = 96.0363
ARG_OF_PERICENTER = 224.3544
MEAN_ANOMALY   = 189.8306

EPHEMERIS_TYPE = 0
CLASSIFICATION_TYPE = U
NORAD_CAT_ID   = 23343
ELEMENT_SET_NO = 999
REV_AT_EPOCH   = 68671
BSTAR          = .83904168E-4
MEAN_MOTION_DOT = .576E-5
MEAN_MOTION_DDOT = 0

CCSDS_OMM_VERS = 2.0
CREATION_DATE  = 
ORIGINATOR     = 

OBJECT_NAME    = SL-16 R/B
OBJECT_ID      = 1994-077B
CENTER_NAME    = EARTH
REF_FRAME      = TEME
TIME_SYSTEM    = UTC
MEAN_ELEMENT_THEORY = SGP/SGP4

EPOCH          = 2026-03-06T05:36:54.825696
MEAN_MOTION    = 14.15561499
ECCENTRICITY   = .00033023
INCLINATION    = 70.9852
RA_OF_ASC_NODE = 359.7583
ARG_OF_PERICENTER = 217.0855
MEAN_ANOMALY   = 143.0040

EPHEMERIS_TYPE = 0
CLASSIFICATION_TYPE = U
NORAD_CAT_ID   = 23405
ELEMENT_SET_NO = 999
REV_AT_EPOCH   = 61574
BSTAR          = -.72812341E-4
MEAN_MOTION_DOT = -.19E-5
MEAN_MOTION_DDOT = 0

CCSDS_OMM_VERS = 2.0
CREATION_DATE  = 
ORIGINATOR     = 

OBJECT_NAME    = ARIANE 40+ R/B
OBJECT_ID      = 1995-021B
CENTER_NAME    = EARTH
REF_FRAME      = TEME
TIME_SYSTEM    = UTC
MEAN_ELEMENT_THEORY = SGP/SGP4

EPOCH          = 2026-03-06T04:39:20.280672
MEAN_MOTION    = 14.39769260
ECCENTRICITY   = .00074908
INCLINATION    = 98.4504
RA_OF_ASC_NODE = 136.7239
ARG_OF_PERICENTER = 145.9211
MEAN_ANOMALY   = 228.3004

EPHEMERIS_TYPE = 0
CLASSIFICATION_TYPE = U
NORAD_CAT_ID   = 23561
ELEMENT_SET_NO = 999
REV_AT_EPOCH   = 61874
BSTAR          = .12658093E-3
MEAN_MOTION_DOT = .353E-5
MEAN_MOTION_DDOT = 0

CCSDS_OMM_VERS = 2.0
CREATION_DATE  = 
ORIGINATOR     = 

OBJECT_NAME    = SL-16 R/B
OBJECT_ID      = 1995-058B
CENTER_NAME    = EARTH
REF_FRAME      = TEME
TIME_SYSTEM    = UTC
MEAN_ELEMENT_THEORY = SGP/SGP4

EPOCH          = 2026-03-06T07:28:30.757440
MEAN_MOTION    = 14.15493309
ECCENTRICITY   = .00109565
INCLINATION    = 71.0214
RA_OF_ASC_NODE = 187.3468
ARG_OF_PERICENTER = 131.7197
MEAN_ANOMALY   = 228.4865

EPHEMERIS_TYPE = 0
CLASSIFICATION_TYPE = U
NORAD_CAT_ID   = 23705
ELEMENT_SET_NO = 999
REV_AT_EPOCH   = 56737
BSTAR          = .10045586E-3
MEAN_MOTION_DOT = .149E-5
MEAN_MOTION_DDOT = 0

CCSDS_OMM_VERS = 2.0
CREATION_DATE  = 
ORIGINATOR     = 

OBJECT_NAME    = SL-16 R/B
OBJECT_ID      = 1996-051B
CENTER_NAME    = EARTH
REF_FRAME      = TEME
TIME_SYSTEM    = UTC
MEAN_ELEMENT_THEORY = SGP/SGP4

EPOCH          = 2026-03-06T06:29:59.954784
MEAN_MOTION    = 14.12414692
ECCENTRICITY   = .00153708
INCLINATION    = 70.7599
RA_OF_ASC_NODE = 182.4746
ARG_OF_PERICENTER = 153.2319
MEAN_ANOMALY   = 206.9597

EPHEMERIS_TYPE = 0
CLASSIFICATION_TYPE = U
NORAD_CAT_ID   = 24298
ELEMENT_SET_NO = 999
REV_AT_EPOCH   = 52116
BSTAR          = .94178075E-4
MEAN_MOTION_DOT = .125E-5
MEAN_MOTION_DDOT = 0

CCSDS_OMM_VERS = 2.0
CREATION_DATE  = 
ORIGINATOR     = 

OBJECT_NAME    = ORBVIEW 2 (SEASTAR)
OBJECT_ID      = 1997-037A
CENTER_NAME    = EARTH
REF_FRAME      = TEME
TIME_SYSTEM    = UTC
MEAN_ELEMENT_THEORY = SGP/SGP4

EPOCH          = 2026-03-06T06:45:04.004640
MEAN_MOTION    = 14.35492135
ECCENTRICITY   = .00031462
INCLINATION    = 98.8560
RA_OF_ASC_NODE = 229.5028
ARG_OF_PERICENTER = 78.7692
MEAN_ANOMALY   = 281.3846

EPHEMERIS_TYPE = 0
CLASSIFICATION_TYPE = U
NORAD_CAT_ID   = 24883
ELEMENT_SET_NO = 999
REV_AT_EPOCH   = 50798
BSTAR          = .17626693E-3
MEAN_MOTION_DOT = .46E-5
MEAN_MOTION_DDOT = 0

